COSMOS 2251 DEB         
1 34615U 93036WL  17345.87098003  .00000507  00000-0  50538-3 0  9991
2 34615  74.0063 283.0768 0405871  66.9647   7.3492 13.48923406433755
